STARLINK-35460          
1 66328U 25253K   25329.00004630 -.02033328  00000+0 -27936-1 0  9996
2 66328  42.9997  88.5128 0001197 278.7937 257.1705 15.60016952  4174
STARLINK-35505          
1 66329U 25253L   25329.00004630 -.02033088  00000+0 -27931-1 0  9995
2 66329  42.9997  88.5634 0001235 280.6986 236.0949 15.60017127  4076
STARLINK-35512          
1 66330U 25253M   25329.00004630 -.02033845  00000+0 -27941-1 0  9999
2 66330  43.0000  88.5385 0001327 286.2146 240.1615 15.60017806  4070
STARLINK-35257          
1 66331U 25253N   25329.00004630 -.02030379  00000+0 -27888-1 0  9999
2 66331  43.0001  88.4991 0001380 278.6743 263.0390 15.60016131  3805
STARLINK-35322          
1 66332U 25253P   25329.00004630 -.02028249  00000+0 -27858-1 0  9990
2 66332  42.9999  88.5229 0001252 283.3802 248.7487 15.60014020  4074
STARLINK-35400          
1 66333U 25253Q   25329.00004630 -.02033418  00000+0 -27938-1 0  9994
2 66333  42.9998  88.5035 0001176 277.8669 261.9328 15.60016158  4078
STARLINK-35407          
1 66334U 25253R   25329.00004630 -.02038878  00000+0 -28018-1 0  9990
2 66334  43.0001  88.5195 0001225 278.8762 255.1697 15.60021047  4070
STARLINK-35417          
1 66335U 25253S   25329.00004630 -.02033259  00000+0 -27936-1 0  9997
2 66335  42.9999  88.4800 0001161 276.7181 272.6661 15.60016259  4072
STARLINK-35404          
1 66336U 25253T   25329.00004630 -.02036249  00000+0 -27980-1 0  9999
2 66336  42.9999  88.4946 0001310 278.7417 264.8918 15.60017382  4171
STARLINK-34783          
1 66337U 25253U   25329.00004630 -.02034620  00000+0 -27956-1 0  9994
2 66337  42.9997  88.4755 0001206 275.9665 275.3353 15.60017057  4120
STARLINK-35477          
1 66338U 25253V   25329.00004630 -.02034991  00000+0 -27962-1 0  9993
2 66338  42.9996  88.4853 0001201 278.6622 268.8063 15.60016604  4174
STARLINK-35443          
1 66339U 25253W   25329.00004630 -.02035598  00000+0 -27970-1 0  9997
2 66339  43.0002  88.4602 0001224 274.2782 282.7742 15.60017980  4123
