CCSDS_OMM_VERS = 2.0
CREATION_DATE  = 
ORIGINATOR     = 

OBJECT_NAME    = STARLINK-35460
OBJECT_ID      = 2025-253K
CENTER_NAME    = EARTH
REF_FRAME      = TEME
TIME_SYSTEM    = UTC
MEAN_ELEMENT_THEORY = SGP/SGP4

EPOCH          = 2025-11-25T00:00:04.000320
MEAN_MOTION    = 15.60016952
ECCENTRICITY   = .00011971
INCLINATION    = 42.9997
RA_OF_ASC_NODE = 88.5128
ARG_OF_PERICENTER = 278.7937
MEAN_ANOMALY   = 257.1705

EPHEMERIS_TYPE = 0
CLASSIFICATION_TYPE = U
NORAD_CAT_ID   = 66328
ELEMENT_SET_NO = 999
REV_AT_EPOCH   = 417
BSTAR          = -.27935802E-1
MEAN_MOTION_DOT = -.2033328E-1
MEAN_MOTION_DDOT = 0

CCSDS_OMM_VERS = 2.0
CREATION_DATE  = 
ORIGINATOR     = 

OBJECT_NAME    = STARLINK-35505
OBJECT_ID      = 2025-253L
CENTER_NAME    = EARTH
REF_FRAME      = TEME
TIME_SYSTEM    = UTC
MEAN_ELEMENT_THEORY = SGP/SGP4

EPOCH          = 2025-11-25T00:00:04.000320
MEAN_MOTION    = 15.60017127
ECCENTRICITY   = .00012351
INCLINATION    = 42.9997
RA_OF_ASC_NODE = 88.5634
ARG_OF_PERICENTER = 280.6986
MEAN_ANOMALY   = 236.0949

EPHEMERIS_TYPE = 0
CLASSIFICATION_TYPE = U
NORAD_CAT_ID   = 66329
ELEMENT_SET_NO = 999
REV_AT_EPOCH   = 407
BSTAR          = -.2793139E-1
MEAN_MOTION_DOT = -.2033088E-1
MEAN_MOTION_DDOT = 0

CCSDS_OMM_VERS = 2.0
CREATION_DATE  = 
ORIGINATOR     = 

OBJECT_NAME    = STARLINK-35512
OBJECT_ID      = 2025-253M
CENTER_NAME    = EARTH
REF_FRAME      = TEME
TIME_SYSTEM    = UTC
MEAN_ELEMENT_THEORY = SGP/SGP4

EPOCH          = 2025-11-25T00:00:04.000320
MEAN_MOTION    = 15.60017806
ECCENTRICITY   = .00013279
INCLINATION    = 43.0000
RA_OF_ASC_NODE = 88.5385
ARG_OF_PERICENTER = 286.2146
MEAN_ANOMALY   = 240.1615

EPHEMERIS_TYPE = 0
CLASSIFICATION_TYPE = U
NORAD_CAT_ID   = 66330
ELEMENT_SET_NO = 999
REV_AT_EPOCH   = 407
BSTAR          = -.27941477E-1
MEAN_MOTION_DOT = -.2033845E-1
MEAN_MOTION_DDOT = 0

CCSDS_OMM_VERS = 2.0
CREATION_DATE  = 
ORIGINATOR     = 

OBJECT_NAME    = STARLINK-35257
OBJECT_ID      = 2025-253N
CENTER_NAME    = EARTH
REF_FRAME      = TEME
TIME_SYSTEM    = UTC
MEAN_ELEMENT_THEORY = SGP/SGP4

EPOCH          = 2025-11-25T00:00:04.000320
MEAN_MOTION    = 15.60016131
ECCENTRICITY   = .00013801
INCLINATION    = 43.0001
RA_OF_ASC_NODE = 88.4991
ARG_OF_PERICENTER = 278.6743
MEAN_ANOMALY   = 263.0390

EPHEMERIS_TYPE = 0
CLASSIFICATION_TYPE = U
NORAD_CAT_ID   = 66331
ELEMENT_SET_NO = 999
REV_AT_EPOCH   = 380
BSTAR          = -.27888143E-1
MEAN_MOTION_DOT = -.2030379E-1
MEAN_MOTION_DDOT = 0

CCSDS_OMM_VERS = 2.0
CREATION_DATE  = 
ORIGINATOR     = 

OBJECT_NAME    = STARLINK-35322
OBJECT_ID      = 2025-253P
CENTER_NAME    = EARTH
REF_FRAME      = TEME
TIME_SYSTEM    = UTC
MEAN_ELEMENT_THEORY = SGP/SGP4

EPOCH          = 2025-11-25T00:00:04.000320
MEAN_MOTION    = 15.60014020
ECCENTRICITY   = .00012522
INCLINATION    = 42.9999
RA_OF_ASC_NODE = 88.5229
ARG_OF_PERICENTER = 283.3802
MEAN_ANOMALY   = 248.7487

EPHEMERIS_TYPE = 0
CLASSIFICATION_TYPE = U
NORAD_CAT_ID   = 66332
ELEMENT_SET_NO = 999
REV_AT_EPOCH   = 407
BSTAR          = -.2785842E-1
MEAN_MOTION_DOT = -.2028249E-1
MEAN_MOTION_DDOT = 0

CCSDS_OMM_VERS = 2.0
CREATION_DATE  = 
ORIGINATOR     = 

OBJECT_NAME    = STARLINK-35400
OBJECT_ID      = 2025-253Q
CENTER_NAME    = EARTH
REF_FRAME      = TEME
TIME_SYSTEM    = UTC
MEAN_ELEMENT_THEORY = SGP/SGP4

EPOCH          = 2025-11-25T00:00:04.000320
MEAN_MOTION    = 15.60016158
ECCENTRICITY   = .00011762
INCLINATION    = 42.9998
RA_OF_ASC_NODE = 88.5035
ARG_OF_PERICENTER = 277.8669
MEAN_ANOMALY   = 261.9328

EPHEMERIS_TYPE = 0
CLASSIFICATION_TYPE = U
NORAD_CAT_ID   = 66333
ELEMENT_SET_NO = 999
REV_AT_EPOCH   = 407
BSTAR          = -.27938322E-1
MEAN_MOTION_DOT = -.2033418E-1
MEAN_MOTION_DDOT = 0

CCSDS_OMM_VERS = 2.0
CREATION_DATE  = 
ORIGINATOR     = 

OBJECT_NAME    = STARLINK-35407
OBJECT_ID      = 2025-253R
CENTER_NAME    = EARTH
REF_FRAME      = TEME
TIME_SYSTEM    = UTC
MEAN_ELEMENT_THEORY = SGP/SGP4

EPOCH          = 2025-11-25T00:00:04.000320
MEAN_MOTION    = 15.60021047
ECCENTRICITY   = .00012258
INCLINATION    = 43.0001
RA_OF_ASC_NODE = 88.5195
ARG_OF_PERICENTER = 278.8762
MEAN_ANOMALY   = 255.1697

EPHEMERIS_TYPE = 0
CLASSIFICATION_TYPE = U
NORAD_CAT_ID   = 66334
ELEMENT_SET_NO = 999
REV_AT_EPOCH   = 407
BSTAR          = -.28018401E-1
MEAN_MOTION_DOT = -.2038878E-1
MEAN_MOTION_DDOT = 0

CCSDS_OMM_VERS = 2.0
CREATION_DATE  = 
ORIGINATOR     = 

OBJECT_NAME    = STARLINK-35417
OBJECT_ID      = 2025-253S
CENTER_NAME    = EARTH
REF_FRAME      = TEME
TIME_SYSTEM    = UTC
MEAN_ELEMENT_THEORY = SGP/SGP4

EPOCH          = 2025-11-25T00:00:04.000320
MEAN_MOTION    = 15.60016259
ECCENTRICITY   = .0001161
INCLINATION    = 42.9999
RA_OF_ASC_NODE = 88.4800
ARG_OF_PERICENTER = 276.7181
MEAN_ANOMALY   = 272.6661

EPHEMERIS_TYPE = 0
CLASSIFICATION_TYPE = U
NORAD_CAT_ID   = 66335
ELEMENT_SET_NO = 999
REV_AT_EPOCH   = 407
BSTAR          = -.27935881E-1
MEAN_MOTION_DOT = -.2033259E-1
MEAN_MOTION_DDOT = 0

CCSDS_OMM_VERS = 2.0
CREATION_DATE  = 
ORIGINATOR     = 

OBJECT_NAME    = STARLINK-35404
OBJECT_ID      = 2025-253T
CENTER_NAME    = EARTH
REF_FRAME      = TEME
TIME_SYSTEM    = UTC
MEAN_ELEMENT_THEORY = SGP/SGP4

EPOCH          = 2025-11-25T00:00:04.000320
MEAN_MOTION    = 15.60017382
ECCENTRICITY   = .00013105
INCLINATION    = 42.9999
RA_OF_ASC_NODE = 88.4946
ARG_OF_PERICENTER = 278.7417
MEAN_ANOMALY   = 264.8918

EPHEMERIS_TYPE = 0
CLASSIFICATION_TYPE = U
NORAD_CAT_ID   = 66336
ELEMENT_SET_NO = 999
REV_AT_EPOCH   = 417
BSTAR          = -.27979978E-1
MEAN_MOTION_DOT = -.2036249E-1
MEAN_MOTION_DDOT = 0

CCSDS_OMM_VERS = 2.0
CREATION_DATE  = 
ORIGINATOR     = 

OBJECT_NAME    = STARLINK-34783
OBJECT_ID      = 2025-253U
CENTER_NAME    = EARTH
REF_FRAME      = TEME
TIME_SYSTEM    = UTC
MEAN_ELEMENT_THEORY = SGP/SGP4

EPOCH          = 2025-11-25T00:00:04.000320
MEAN_MOTION    = 15.60017057
ECCENTRICITY   = .00012067
INCLINATION    = 42.9997
RA_OF_ASC_NODE = 88.4755
ARG_OF_PERICENTER = 275.9665
MEAN_ANOMALY   = 275.3353

EPHEMERIS_TYPE = 0
CLASSIFICATION_TYPE = U
NORAD_CAT_ID   = 66337
ELEMENT_SET_NO = 999
REV_AT_EPOCH   = 412
BSTAR          = -.279559E-1
MEAN_MOTION_DOT = -.203462E-1
MEAN_MOTION_DDOT = 0

CCSDS_OMM_VERS = 2.0
CREATION_DATE  = 
ORIGINATOR     = 

OBJECT_NAME    = STARLINK-35477
OBJECT_ID      = 2025-253V
CENTER_NAME    = EARTH
REF_FRAME      = TEME
TIME_SYSTEM    = UTC
MEAN_ELEMENT_THEORY = SGP/SGP4

EPOCH          = 2025-11-25T00:00:04.000320
MEAN_MOTION    = 15.60016604
ECCENTRICITY   = .00012014
INCLINATION    = 42.9996
RA_OF_ASC_NODE = 88.4853
ARG_OF_PERICENTER = 278.6622
MEAN_ANOMALY   = 268.8063

EPHEMERIS_TYPE = 0
CLASSIFICATION_TYPE = U
NORAD_CAT_ID   = 66338
ELEMENT_SET_NO = 999
REV_AT_EPOCH   = 417
BSTAR          = -.27962296E-1
MEAN_MOTION_DOT = -.2034991E-1
MEAN_MOTION_DDOT = 0

CCSDS_OMM_VERS = 2.0
CREATION_DATE  = 
ORIGINATOR     = 

OBJECT_NAME    = STARLINK-35443
OBJECT_ID      = 2025-253W
CENTER_NAME    = EARTH
REF_FRAME      = TEME
TIME_SYSTEM    = UTC
MEAN_ELEMENT_THEORY = SGP/SGP4

EPOCH          = 2025-11-25T00:00:04.000320
MEAN_MOTION    = 15.60017980
ECCENTRICITY   = .0001224
INCLINATION    = 43.0002
RA_OF_ASC_NODE = 88.4602
ARG_OF_PERICENTER = 274.2782
MEAN_ANOMALY   = 282.7742

EPHEMERIS_TYPE = 0
CLASSIFICATION_TYPE = U
NORAD_CAT_ID   = 66339
ELEMENT_SET_NO = 999
REV_AT_EPOCH   = 412
BSTAR          = -.27970107E-1
MEAN_MOTION_DOT = -.2035598E-1
MEAN_MOTION_DDOT = 0

